{
	"users": [],
	"starlinks": [
		{
			"spaceTrack": {
				"INCLINATION": 53.0555,
				"PERIOD": 95.593,
				"OBJECT_NAME": "STARLINK-1092",
				"DECAYED": 0,
				"TLE_LINE0": "0 STARLINK-1092",
				"TLE_LINE1": "1 44969U 20001BH  22334.11525183 -.00000193  00000-0  59529-5 0  9994",
				"TLE_LINE2": "2 44969  53.0555 273.7676 0001921  53.0333 307.0831 15.06386104160200"
			},
			"id": "5eed7715096e5900069856df",
			"latitude": 47.95026753514407,
			"longitude": 61.52439339505769,
			"height_km": 551.8951880965378,
			"velocity_kms": 7.592134980927939
		},
		{
			"spaceTrack": {
				"INCLINATION": 53.0557,
				"PERIOD": 95.593,
				"OBJECT_NAME": "STARLINK-1224",
				"DECAYED": 0,
				"TLE_LINE0": "0 STARLINK-1224",
				"TLE_LINE1": "1 45186U 20012J   22334.47462821 -.00000710  00000-0 -28748-4 0  9990",
				"TLE_LINE2": "2 45186  53.0557  12.1651 0001545  66.8796 293.2356 15.06393737154637"
			},
			"id": "5eed7715096e5900069856e0",
			"latitude": -29.653627261522747,
			"longitude": 12.350067341320111,
			"height_km": 556.504739997401,
			"velocity_kms": 7.583095039385341
		},
		{
			"spaceTrack": {
				"INCLINATION": 53.0556,
				"PERIOD": 95.592,
				"OBJECT_NAME": "STARLINK-1090",
				"DECAYED": 0,
				"TLE_LINE0": "0 STARLINK-1090",
				"TLE_LINE1": "1 44968U 20001BG  22334.52069224 -.00000236  00000-0  30803-5 0  9999",
				"TLE_LINE2": "2 44968  53.0556 271.9427 0001781  56.5300 303.5859 15.06404056160275"
			},
			"id": "5eed7715096e5900069856e1",
			"latitude": 49.66355089376247,
			"longitude": -0.7277192675337247,
			"height_km": 551.7633296033127,
			"velocity_kms": 7.592634185610583
		},
		{
			"spaceTrack": {
				"INCLINATION": 53.0543,
				"PERIOD": 95.593,
				"OBJECT_NAME": "STARLINK-1225",
				"DECAYED": 0,
				"TLE_LINE0": "0 STARLINK-1225",
				"TLE_LINE1": "1 45187U 20012K   22334.47831420 -.00000699  00000-0 -28023-4 0  9998",
				"TLE_LINE2": "2 45187  53.0543  12.1452 0001557  70.3159 289.7998 15.06386042154686"
			},
			"id": "5eed7715096e5900069856e2",
			"latitude": -42.84686879468746,
			"longitude": -6.379836344220719,
			"height_km": 562.2580754143519,
			"velocity_kms": 7.579627361786263
		},
		{
			"spaceTrack": {
				"INCLINATION": 53.0549,
				"PERIOD": 95.593,
				"OBJECT_NAME": "STARLINK-1239",
				"DECAYED": 0,
				"TLE_LINE0": "0 STARLINK-1239",
				"TLE_LINE1": "1 45193U 20012R   22334.51886358 -.00000120  00000-0  10872-4 0  9991",
				"TLE_LINE2": "2 45193  53.0549  11.9599 0001599  53.5407 306.5729 15.06391361154649"
			},
			"id": "5eed7715096e5900069856e3",
			"latitude": 52.47654934597874,
			"longitude": 114.42584741305268,
			"height_km": 552.6582515804112,
			"velocity_kms": 7.592297488673441
		},
		{
			"spaceTrack": {
				"INCLINATION": 53.0581,
				"PERIOD": 95.593,
				"OBJECT_NAME": "STARLINK-1201",
				"DECAYED": 0,
				"TLE_LINE0": "0 STARLINK-1201",
				"TLE_LINE1": "1 45182U 20012E   22334.05258314  .00001961  00000-0  15058-3 0  9996",
				"TLE_LINE2": "2 45182  53.0581 354.0391 0001956  50.3438 309.7723 15.06392868154260"
			},
			"id": "5eed7715096e5900069856e4",
			"latitude": -35.381444709098425,
			"longitude": -115.16934711667537,
			"height_km": 559.8277951724804,
			"velocity_kms": 7.580624292401608
		},
		{
			"spaceTrack": {
				"INCLINATION": 53.0514,
				"PERIOD": 95.016,
				"OBJECT_NAME": "STARLINK-1192",
				"DECAYED": 0,
				"TLE_LINE0": "0 STARLINK-1192",
				"TLE_LINE1": "1 45180U 20012C   22334.10738044  .00022985  00000-0  12105-2 0  9991",
				"TLE_LINE2": "2 45180  53.0514   6.1011 0002642  55.5000 304.6242 15.15532561154742"
			},
			"id": "5eed7715096e5900069856e5",
			"latitude": 3.5985187447045246,
			"longitude": -152.89814513415013,
			"height_km": 520.6167176255294,
			"velocity_kms": 7.604055191875738
		},
		{
			"spaceTrack": {
				"INCLINATION": 53.0559,
				"PERIOD": 95.592,
				"OBJECT_NAME": "STARLINK-1205",
				"DECAYED": 0,
				"TLE_LINE0": "0 STARLINK-1205",
				"TLE_LINE1": "1 45184U 20012G   22334.52438312  .00000496  00000-0  52209-4 0  9990",
				"TLE_LINE2": "2 45184  53.0559 351.9356 0001573  69.0067 291.1090 15.06402973154017"
			},
			"id": "5eed7715096e5900069856e6",
			"latitude": 39.21303366193203,
			"longitude": 55.15366965857314,
			"height_km": 549.5898748177569,
			"velocity_kms": 7.592664497983034
		},
		{
			"spaceTrack": {
				"INCLINATION": 53.0532,
				"PERIOD": 95.592,
				"OBJECT_NAME": "STARLINK-1137",
				"DECAYED": 0,
				"TLE_LINE0": "0 STARLINK-1137",
				"TLE_LINE1": "1 45092U 20006BA  22334.08760159  .00002851  00000-0  21024-3 0  9996",
				"TLE_LINE2": "2 45092  53.0532 213.8931 0001743  67.8040 292.3134 15.06399392156819"
			},
			"id": "5eed7715096e5900069856e7",
			"latitude": -52.487692915883876,
			"longitude": 134.5402702751722,
			"height_km": 566.5899547443087,
			"velocity_kms": 7.577017928398137
		},
		{
			"spaceTrack": {
				"INCLINATION": 53.0549,
				"PERIOD": 95.592,
				"OBJECT_NAME": "STARLINK-1237",
				"DECAYED": 0,
				"TLE_LINE0": "0 STARLINK-1237",
				"TLE_LINE1": "1 45192U 20012Q   22334.39721959  .00000662  00000-0  63353-4 0  9993",
				"TLE_LINE2": "2 45192  53.0549  12.5047 0001511  63.3562 296.7582 15.06396137154685"
			},
			"id": "5eed7715096e5900069856e8",
			"latitude": 17.498481314720202,
			"longitude": 51.1821820256456,
			"height_km": 546.7306560791994,
			"velocity_kms": 7.591802271092539
		},
		{
			"spaceTrack": {
				"INCLINATION": 53.0541,
				"PERIOD": 95.593,
				"OBJECT_NAME": "STARLINK-1176",
				"DECAYED": 0,
				"TLE_LINE0": "0 STARLINK-1176",
				"TLE_LINE1": "1 45090U 20006AY  22334.04611186  .00000417  00000-0  46890-4 0  9990",
				"TLE_LINE2": "2 45090  53.0541 214.0710 0001463  68.0226 292.0918 15.06391314156816"
			},
			"id": "5eed7715096e5900069856e9",
			"latitude": 39.66709848673568,
			"longitude": 19.19966525335276,
			"height_km": 550.2075618129302,
			"velocity_kms": 7.592106824856926
		},
		{
			"spaceTrack": {
				"INCLINATION": 52.9706,
				"PERIOD": 88.292,
				"OBJECT_NAME": "STARLINK-1175",
				"DECAYED": 1,
				"TLE_LINE0": "0 STARLINK-1175",
				"TLE_LINE1": "1 45097U 20006BF  21077.92898017  .11012273  12156-4  21011-2 0  9997",
				"TLE_LINE2": "2 45097  52.9706 297.1523 0011421 281.5423  79.1913 16.30956567 66201"
			},
			"id": "5eed7715096e5900069856ea",
			"latitude": null,
			"longitude": null,
			"height_km": null,
			"velocity_kms": null
		},
		{
			"spaceTrack": {
				"INCLINATION": 53.0547,
				"PERIOD": 95.593,
				"OBJECT_NAME": "STARLINK-1234",
				"DECAYED": 0,
				"TLE_LINE0": "0 STARLINK-1234",
				"TLE_LINE1": "1 45190U 20012N   22334.36774085 -.00000730  00000-0 -30113-4 0  9992",
				"TLE_LINE2": "2 45190  53.0547 332.6334 0001572  67.1873 292.9282 15.06382502154259"
			},
			"id": "5eed7715096e5900069856eb",
			"latitude": 53.20568497336483,
			"longitude": 117.87707832072682,
			"height_km": 552.8211622688978,
			"velocity_kms": 7.592293535492888
		},
		{
			"spaceTrack": {
				"INCLINATION": 53.055,
				"PERIOD": 95.593,
				"OBJECT_NAME": "STARLINK-1160",
				"DECAYED": 0,
				"TLE_LINE0": "0 STARLINK-1160",
				"TLE_LINE1": "1 45082U 20006AQ  22334.44235649  .00000886  00000-0  78433-4 0  9999",
				"TLE_LINE2": "2 45082  53.0550 232.2883 0001952  52.2314 307.8852 15.06387938156589"
			},
			"id": "5eed7715096e5900069856ec",
			"latitude": 33.01330267436264,
			"longitude": 48.4547515717121,
			"height_km": 549.3166859295889,
			"velocity_kms": 7.591655443222917
		},
		{
			"spaceTrack": {
				"INCLINATION": 53.0558,
				"PERIOD": 95.593,
				"OBJECT_NAME": "STARLINK-1177",
				"DECAYED": 0,
				"TLE_LINE0": "0 STARLINK-1177",
				"TLE_LINE1": "1 45078U 20006AL  22334.42487079  .00001059  00000-0  90014-4 0  9990",
				"TLE_LINE2": "2 45078  53.0558 232.3792 0001535  64.4034 295.7113 15.06393543156576"
			},
			"id": "5eed7715096e5900069856ed",
			"latitude": -39.26020023129968,
			"longitude": 115.22558407870682,
			"height_km": 561.1071071008755,
			"velocity_kms": 7.580070534251113
		},
		{
			"spaceTrack": {
				"INCLINATION": 53.0547,
				"PERIOD": 95.593,
				"OBJECT_NAME": "STARLINK-1183",
				"DECAYED": 0,
				"TLE_LINE0": "0 STARLINK-1183",
				"TLE_LINE1": "1 45088U 20006AW  22334.39354654  .00000078  00000-0  24176-4 0  9995",
				"TLE_LINE2": "2 45088  53.0547 212.5008 0001605  62.0790 298.0362 15.06388314156860"
			},
			"id": "5eed7715096e5900069856ee",
			"latitude": 32.42187483117851,
			"longitude": -94.11379353743675,
			"height_km": 548.3140967438958,
			"velocity_kms": 7.592632604654414
		},
		{
			"spaceTrack": {
				"INCLINATION": 53.0549,
				"PERIOD": 95.593,
				"OBJECT_NAME": "STARLINK-1136",
				"DECAYED": 0,
				"TLE_LINE0": "0 STARLINK-1136",
				"TLE_LINE1": "1 45089U 20006AX  22334.40091989  .00000037  00000-0  21404-4 0  9993",
				"TLE_LINE2": "2 45089  53.0549 212.5715 0001696  60.1234 299.9924 15.06392361156872"
			},
			"id": "5eed7715096e5900069856ef",
			"latitude": 1.5082691882702195,
			"longitude": -121.2445654270118,
			"height_km": 547.3267348897143,
			"velocity_kms": 7.589994697468379
		},
		{
			"spaceTrack": {
				"INCLINATION": 53.055,
				"PERIOD": 95.592,
				"OBJECT_NAME": "STARLINK-1195",
				"DECAYED": 0,
				"TLE_LINE0": "0 STARLINK-1195",
				"TLE_LINE1": "1 45102U 20006BL  22334.09128482  .00001726  00000-0  13474-3 0  9996",
				"TLE_LINE2": "2 45102  53.0550 213.8692 0001766  67.9740 292.1437 15.06398108156816"
			},
			"id": "5eed7715096e5900069856f0",
			"latitude": -45.123965100727226,
			"longitude": 106.22708393717893,
			"height_km": 563.6817290455692,
			"velocity_kms": 7.578558744326896
		}
	]
}
